start=new Date('2022-10-29T00:00:00.000Z').valueOf();
sats=[{"DECAY_DATE":null,"GP_ID":"216406123","ELEMENT_SET_NO":"999","PERIAPSIS":"545.974","INCLINATION":"53.0534","BSTAR":"0.00013186000000","RCS_SIZE":"LARGE","OBJECT_ID":"2020-019AZ","REF_FRAME":"TEME","ECCENTRICITY":"0.00017660","MEAN_MOTION_DDOT":"0.0000000000000","TLE_LINE2":"2 45407  53.0534 248.6497 0001766  54.4389 305.6764 15.06405255144794","ARG_OF_PERICENTER":"54.4389","MEAN_ANOMALY":"305.6764","EPOCH":"2022-10-28T20:11:14.024256","NORAD_CAT_ID":"45407","EPHEMERIS_TYPE":"0","REV_AT_EPOCH":"14479","PERIOD":"95.592","CLASSIFICATION_TYPE":"U","MEAN_MOTION":"15.06405255","OBJECT_TYPE":"PAYLOAD","SITE":"AFETR","TIME_SYSTEM":"UTC","COUNTRY_CODE":"US","OBJECT_NAME":"STARLINK-1275","MEAN_ELEMENT_THEORY":"SGP4","SEMIMAJOR_AXIS":"6925.332","CENTER_NAME":"EARTH","APOAPSIS":"548.420","MEAN_MOTION_DOT":"0.00001683","RA_OF_ASC_NODE":"248.6497","TLE_LINE1":"1 45407U 20019AZ  22301.84113454  .00001683  00000-0  13186-3 0  9990","FILE":"3637111","LAUNCH_DATE":"2020-03-18"},{"BSTAR":"0.00023056000000","INCLINATION":"53.0546","ELEMENT_SET_NO":"999","PERIAPSIS":"545.610","GP_ID":"216404375","DECAY_DATE":null,"ECCENTRICITY":"0.00022840","MEAN_MOTION_DDOT":"0.0000000000000","TLE_LINE2":"2 45408  53.0546 279.4868 0002284  47.1909 312.9272 15.06407067144355","RCS_SIZE":"LARGE","REF_FRAME":"TEME","OBJECT_ID":"2020-019BA","REV_AT_EPOCH":"14435","EPHEMERIS_TYPE":"0","NORAD_CAT_ID":"45408","ARG_OF_PERICENTER":"47.1909","MEAN_ANOMALY":"312.9272","EPOCH":"2022-10-28T15:43:13.635552","MEAN_MOTION":"15.06407067","CLASSIFICATION_TYPE":"U","OBJECT_TYPE":"PAYLOAD","PERIOD":"95.592","TIME_SYSTEM":"UTC","SITE":"AFETR","COUNTRY_CODE":"US","CENTER_NAME":"EARTH","SEMIMAJOR_AXIS":"6925.327","MEAN_ELEMENT_THEORY":"SGP4","OBJECT_NAME":"STARLINK-1278","FILE":"3637111","TLE_LINE1":"1 45408U 20019BA  22301.65501893  .00003155  00000-0  23056-3 0  9991","LAUNCH_DATE":"2020-03-18","APOAPSIS":"548.774","RA_OF_ASC_NODE":"279.4868","MEAN_MOTION_DOT":"0.00003155"},{"ECCENTRICITY":"0.00019500","TLE_LINE2":"2 45409  53.0533 248.6160 0001950  59.4778 300.6403 15.06402065144807","MEAN_MOTION_DDOT":"0.0000000000000","RCS_SIZE":"LARGE","REF_FRAME":"TEME","OBJECT_ID":"2020-019BB","BSTAR":"0.00014867000000","INCLINATION":"53.0533","PERIAPSIS":"545.857","ELEMENT_SET_NO":"999","GP_ID":"216404625","DECAY_DATE":null,"MEAN_MOTION":"15.06402065","CLASSIFICATION_TYPE":"U","OBJECT_TYPE":"PAYLOAD","PERIOD":"95.592","REV_AT_EPOCH":"14480","EPHEMERIS_TYPE":"0","EPOCH":"2022-10-28T20:23:12.572448","MEAN_ANOMALY":"300.6403","NORAD_CAT_ID":"45409","ARG_OF_PERICENTER":"59.4778","COUNTRY_CODE":"US","TIME_SYSTEM":"UTC","SITE":"AFETR","FILE":"3637111","TLE_LINE1":"1 45409U 20019BB  22301.84945107  .00001934  00000-0  14867-3 0  9996","LAUNCH_DATE":"2020-03-18","APOAPSIS":"548.558","RA_OF_ASC_NODE":"248.6160","MEAN_MOTION_DOT":"0.00001934","CENTER_NAME":"EARTH","SEMIMAJOR_AXIS":"6925.342","OBJECT_NAME":"STARLINK-1282","MEAN_ELEMENT_THEORY":"SGP4"},{"PERIOD":"95.591","OBJECT_TYPE":"PAYLOAD","CLASSIFICATION_TYPE":"U","MEAN_MOTION":"15.06413126","MEAN_ANOMALY":"296.0278","EPOCH":"2022-10-28T14:22:16.989600","ARG_OF_PERICENTER":"64.0906","NORAD_CAT_ID":"45411","EPHEMERIS_TYPE":"0","REV_AT_EPOCH":"14478","REF_FRAME":"TEME","OBJECT_ID":"2020-019BD","RCS_SIZE":"LARGE","TLE_LINE2":"2 45411  53.0546 249.7253 0001892  64.0906 296.0278 15.06413126144784","MEAN_MOTION_DDOT":"0.0000000000000","ECCENTRICITY":"0.00018920","DECAY_DATE":null,"GP_ID":"216405874","BSTAR":"0.00039788000000","INCLINATION":"53.0546","ELEMENT_SET_NO":"999","PERIAPSIS":"545.863","RA_OF_ASC_NODE":"249.7253","MEAN_MOTION_DOT":"0.00005652","APOAPSIS":"548.484","LAUNCH_DATE":"2020-03-18","FILE":"3637111","TLE_LINE1":"1 45411U 20019BD  22301.59880775  .00005652  00000-0  39788-3 0  9990","SEMIMAJOR_AXIS":"6925.308","MEAN_ELEMENT_THEORY":"SGP4","OBJECT_NAME":"STARLINK-1293","CENTER_NAME":"EARTH","COUNTRY_CODE":"US","TIME_SYSTEM":"UTC","SITE":"AFETR"},{"EPOCH":"2022-10-28T07:12:21.612096","MEAN_ANOMALY":"319.3746","ARG_OF_PERICENTER":"40.7399","NORAD_CAT_ID":"45412","REV_AT_EPOCH":"14471","EPHEMERIS_TYPE":"0","PERIOD":"95.591","OBJECT_TYPE":"PAYLOAD","MEAN_MOTION":"15.06418365","CLASSIFICATION_TYPE":"U","GP_ID":"216384100","DECAY_DATE":null,"ELEMENT_SET_NO":"999","PERIAPSIS":"545.706","INCLINATION":"53.0536","BSTAR":"0.00028820000000","OBJECT_ID":"2020-019BE","REF_FRAME":"TEME","RCS_SIZE":"LARGE","TLE_LINE2":"2 45412  53.0536 251.0620 0002096  40.7399 319.3746 15.06418365144714","MEAN_MOTION_DDOT":"0.0000000000000","ECCENTRICITY":"0.00020960","MEAN_ELEMENT_THEORY":"SGP4","OBJECT_NAME":"STARLINK-1296","SEMIMAJOR_AXIS":"6925.292","CENTER_NAME":"EARTH","MEAN_MOTION_DOT":"0.00004016","RA_OF_ASC_NODE":"251.0620","APOAPSIS":"548.609","LAUNCH_DATE":"2020-03-18","TLE_LINE1":"1 45412U 20019BE  22301.30025014  .00004016  00000-0  28820-3 0  9995","FILE":"3637038","SITE":"AFETR","TIME_SYSTEM":"UTC","COUNTRY_CODE":"US"},{"LAUNCH_DATE":"2020-03-18","FILE":"3636776","TLE_LINE1":"1 45413U 20019BF  22301.13069763  .00003802  00000-0  27391-3 0  9990","RA_OF_ASC_NODE":"251.8241","MEAN_MOTION_DOT":"0.00003802","APOAPSIS":"548.404","CENTER_NAME":"EARTH","SEMIMAJOR_AXIS":"6925.314","OBJECT_NAME":"STARLINK-1298","MEAN_ELEMENT_THEORY":"SGP4","COUNTRY_CODE":"US","TIME_SYSTEM":"UTC","SITE":"AFETR","OBJECT_TYPE":"PAYLOAD","MEAN_MOTION":"15.06411268","CLASSIFICATION_TYPE":"U","PERIOD":"95.591","EPHEMERIS_TYPE":"0","REV_AT_EPOCH":"14478","EPOCH":"2022-10-28T03:08:12.275232","ARG_OF_PERICENTER":"44.6627","NORAD_CAT_ID":"45413","MEAN_ANOMALY":"315.4505","MEAN_MOTION_DDOT":"0.0000000000000","TLE_LINE2":"2 45413  53.0552 251.8241 0001769  44.6627 315.4505 15.06411268144785","ECCENTRICITY":"0.00017690","REF_FRAME":"TEME","OBJECT_ID":"2020-019BF","RCS_SIZE":"LARGE","INCLINATION":"53.0552","BSTAR":"0.00027391000000","ELEMENT_SET_NO":"999","PERIAPSIS":"545.954","GP_ID":"216373376","DECAY_DATE":null},{"MEAN_MOTION_DOT":"0.00001682","RA_OF_ASC_NODE":"248.6348","APOAPSIS":"548.482","LAUNCH_DATE":"2020-03-18","TLE_LINE1":"1 45414U 20019BG  22301.84577343  .00001682  00000-0  13174-3 0  9995","FILE":"3637111","OBJECT_NAME":"STARLINK-1309","MEAN_ELEMENT_THEORY":"SGP4","SEMIMAJOR_AXIS":"6925.302","CENTER_NAME":"EARTH","COUNTRY_CODE":"US","SITE":"AFETR","TIME_SYSTEM":"UTC","PERIOD":"95.591","OBJECT_TYPE":"PAYLOAD","MEAN_MOTION":"15.06415109","CLASSIFICATION_TYPE":"U","ARG_OF_PERICENTER":"50.0928","NORAD_CAT_ID":"45414","MEAN_ANOMALY":"310.0228","EPOCH":"2022-10-28T20:17:54.824352","EPHEMERIS_TYPE":"0","REV_AT_EPOCH":"14478","OBJECT_ID":"2020-019BG","REF_FRAME":"TEME","RCS_SIZE":"LARGE","TLE_LINE2":"2 45414  53.0564 248.6348 0001899  50.0928 310.0228 15.06415109144781","MEAN_MOTION_DDOT":"0.0000000000000","ECCENTRICITY":"0.00018990","GP_ID":"216405123","DECAY_DATE":null,"ELEMENT_SET_NO":"999","PERIAPSIS":"545.852","INCLINATION":"53.0564","BSTAR":"0.00013174000000"},{"SITE":"AFETR","TIME_SYSTEM":"UTC","COUNTRY_CODE":"US","MEAN_ELEMENT_THEORY":"SGP4","OBJECT_NAME":"STARLINK-1316","SEMIMAJOR_AXIS":"6925.324","CENTER_NAME":"EARTH","MEAN_MOTION_DOT":"0.00005463","RA_OF_ASC_NODE":"251.7948","APOAPSIS":"548.557","LAUNCH_DATE":"2020-03-18","TLE_LINE1":"1 45415U 20019BH  22301.14176242  .00005463  00000-0  38530-3 0  9996","FILE":"3636776","DECAY_DATE":null,"GP_ID":"216372375","ELEMENT_SET_NO":"999","PERIAPSIS":"545.821","BSTAR":"0.00038530000000","INCLINATION":"53.0542","OBJECT_ID":"2020-019BH","REF_FRAME":"TEME","RCS_SIZE":"LARGE","TLE_LINE2":"2 45415  53.0542 251.7948 0001975  57.7905 302.3276 15.06407956144714","MEAN_MOTION_DDOT":"0.0000000000000","ECCENTRICITY":"0.00019750","ARG_OF_PERICENTER":"57.7905","MEAN_ANOMALY":"302.3276","NORAD_CAT_ID":"45415","EPOCH":"2022-10-28T03:24:08.273088","REV_AT_EPOCH":"14471","EPHEMERIS_TYPE":"0","PERIOD":"95.592","OBJECT_TYPE":"PAYLOAD","CLASSIFICATION_TYPE":"U","MEAN_MOTION":"15.06407956"},{"TIME_SYSTEM":"UTC","SITE":"AFETR","COUNTRY_CODE":"US","CENTER_NAME":"EARTH","SEMIMAJOR_AXIS":"6925.320","MEAN_ELEMENT_THEORY":"SGP4","OBJECT_NAME":"STARLINK-1318","FILE":"3637111","TLE_LINE1":"1 45416U 20019BJ  22301.83838854  .00000657  00000-0  62975-4 0  9998","LAUNCH_DATE":"2020-03-18","APOAPSIS":"548.499","RA_OF_ASC_NODE":"248.6533","MEAN_MOTION_DOT":"0.00000657","INCLINATION":"53.0534","BSTAR":"0.00006297500000","ELEMENT_SET_NO":"999","PERIAPSIS":"545.870","DECAY_DATE":null,"GP_ID":"216406124","ECCENTRICITY":"0.00018980","MEAN_MOTION_DDOT":"0.0000000000000","TLE_LINE2":"2 45416  53.0534 248.6533 0001898  46.6649 313.4498 15.06409426144800","RCS_SIZE":"LARGE","REF_FRAME":"TEME","OBJECT_ID":"2020-019BJ","REV_AT_EPOCH":"14480","EPHEMERIS_TYPE":"0","ARG_OF_PERICENTER":"46.6649","NORAD_CAT_ID":"45416","MEAN_ANOMALY":"313.4498","EPOCH":"2022-10-28T20:07:16.769856","CLASSIFICATION_TYPE":"U","MEAN_MOTION":"15.06409426","OBJECT_TYPE":"PAYLOAD","PERIOD":"95.592"},{"INCLINATION":"53.0567","BSTAR":"0.00006580400000","ELEMENT_SET_NO":"999","PERIAPSIS":"545.882","GP_ID":"216404376","DECAY_DATE":null,"ECCENTRICITY":"0.00019080","MEAN_MOTION_DDOT":"0.0000000000000","TLE_LINE2":"2 45417  53.0567 279.5229 0001908  50.8179 309.2979 15.06403489144629","RCS_SIZE":"LARGE","REF_FRAME":"TEME","OBJECT_ID":"2020-019BK","EPHEMERIS_TYPE":"0","REV_AT_EPOCH":"14462","MEAN_ANOMALY":"309.2979","EPOCH":"2022-10-28T15:27:18.175104","ARG_OF_PERICENTER":"50.8179","NORAD_CAT_ID":"45417","MEAN_MOTION":"15.06403489","CLASSIFICATION_TYPE":"U","OBJECT_TYPE":"PAYLOAD","PERIOD":"95.592","TIME_SYSTEM":"UTC","SITE":"AFETR","COUNTRY_CODE":"US","CENTER_NAME":"EARTH","SEMIMAJOR_AXIS":"6925.338","MEAN_ELEMENT_THEORY":"SGP4","OBJECT_NAME":"STARLINK-1286","FILE":"3637111","TLE_LINE1":"1 45417U 20019BK  22301.64396036  .00000699  00000-0  65804-4 0  9999","LAUNCH_DATE":"2020-03-18","APOAPSIS":"548.524","RA_OF_ASC_NODE":"279.5229","MEAN_MOTION_DOT":"0.00000699"}];
